[{"OBJECT_NAME":"SL-14 R/B","OBJECT_ID":"1986-006B","EPOCH":"2026-03-09T14:06:16.763328","MEAN_MOTION":14.86814645,"ECCENTRICITY":0.0075052,"INCLINATION":82.5233,"RA_OF_ASC_NODE":259.8333,"ARG_OF_PERICENTER":273.1411,"MEAN_ANOMALY":86.1221,"EPHEMERIS_TYPE":0,"CLASSIFICATION_TYPE":"U","NORAD_CAT_ID":16496,"ELEMENT_SET_NO":999,"REV_AT_EPOCH":14919,"BSTAR":8.3607e-5,"MEAN_MOTION_DOT":8.09e-6,"MEAN_MOTION_DDOT":0},{"OBJECT_NAME":"COSMOS 1743","OBJECT_ID":"1986-034A","EPOCH":"2026-03-09T10:47:12.341760","MEAN_MOTION":15.58526486,"ECCENTRICITY":0.0001656,"INCLINATION":82.5296,"RA_OF_ASC_NODE":74.083,"ARG_OF_PERICENTER":296.6457,"MEAN_ANOMALY":63.4629,"EPHEMERIS_TYPE":0,"CLASSIFICATION_TYPE":"U","NORAD_CAT_ID":16719,"ELEMENT_SET_NO":999,"REV_AT_EPOCH":18021,"BSTAR":0.00044928259,"MEAN_MOTION_DOT":0.00034437,"MEAN_MOTION_DDOT":0},{"OBJECT_NAME":"SL-14 R/B","OBJECT_ID":"1986-046B","EPOCH":"2026-03-09T12:54:35.152704","MEAN_MOTION":14.85590147,"ECCENTRICITY":0.00219619,"INCLINATION":82.4783,"RA_OF_ASC_NODE":80.3252,"ARG_OF_PERICENTER":225.8935,"MEAN_ANOMALY":134.0474,"EPHEMERIS_TYPE":0,"CLASSIFICATION_TYPE":"U","NORAD_CAT_ID":16792,"ELEMENT_SET_NO":999,"REV_AT_EPOCH":12638,"BSTAR":6.3515191e-5,"MEAN_MOTION_DOT":5.75e-6,"MEAN_MOTION_DDOT":0},{"OBJECT_NAME":"SL-14 R/B","OBJECT_ID":"1986-055B","EPOCH":"2026-03-09T16:18:40.903776","MEAN_MOTION":14.85642641,"ECCENTRICITY":0.0018192,"INCLINATION":82.5202,"RA_OF_ASC_NODE":126.6837,"ARG_OF_PERICENTER":336.5476,"MEAN_ANOMALY":145.9532,"EPHEMERIS_TYPE":0,"CLASSIFICATION_TYPE":"U","NORAD_CAT_ID":16882,"ELEMENT_SET_NO":999,"REV_AT_EPOCH":11936,"BSTAR":5.7455e-5,"MEAN_MOTION_DOT":5.23e-6,"MEAN_MOTION_DDOT":0},{"OBJECT_NAME":"AJISAI (EGS)","OBJECT_ID":"1986-061A","EPOCH":"2026-03-09T20:58:03.765216","MEAN_MOTION":12.44515636,"ECCENTRICITY":0.001127,"INCLINATION":50.0087,"RA_OF_ASC_NODE":92.7819,"ARG_OF_PERICENTER":287.4739,"MEAN_ANOMALY":130.8658,"EPHEMERIS_TYPE":0,"CLASSIFICATION_TYPE":"U","NORAD_CAT_ID":16908,"ELEMENT_SET_NO":999,"REV_AT_EPOCH":46802,"BSTAR":-1.6471e-5,"MEAN_MOTION_DOT":-1.0e-6,"MEAN_MOTION_DDOT":0},{"OBJECT_NAME":"SL-14 R/B","OBJECT_ID":"1987-024B","EPOCH":"2026-03-09T13:42:45.789120","MEAN_MOTION":14.86131911,"ECCENTRICITY":0.0016681,"INCLINATION":82.5247,"RA_OF_ASC_NODE":92.875,"ARG_OF_PERICENTER":260.348,"MEAN_ANOMALY":99.5853,"EPHEMERIS_TYPE":0,"CLASSIFICATION_TYPE":"U","NORAD_CAT_ID":17567,"ELEMENT_SET_NO":999,"REV_AT_EPOCH":8811,"BSTAR":6.0637e-5,"MEAN_MOTION_DOT":5.57e-6,"MEAN_MOTION_DDOT":0},{"OBJECT_NAME":"COSMOS 1833","OBJECT_ID":"1987-027A","EPOCH":"2026-03-09T20:38:47.890464","MEAN_MOTION":14.1305479,"ECCENTRICITY":0.0024267,"INCLINATION":70.9224,"RA_OF_ASC_NODE":325.6606,"ARG_OF_PERICENTER":214.2789,"MEAN_ANOMALY":145.6767,"EPHEMERIS_TYPE":0,"CLASSIFICATION_TYPE":"U","NORAD_CAT_ID":17589,"ELEMENT_SET_NO":999,"REV_AT_EPOCH":1034,"BSTAR":-6.9671e-5,"MEAN_MOTION_DOT":-1.79e-6,"MEAN_MOTION_DDOT":0},{"OBJECT_NAME":"SL-16 R/B","OBJECT_ID":"1987-027B","EPOCH":"2026-03-09T20:00:10.599264","MEAN_MOTION":14.17165897,"ECCENTRICITY":0.0003447,"INCLINATION":71.0013,"RA_OF_ASC_NODE":276.1925,"ARG_OF_PERICENTER":142.3265,"MEAN_ANOMALY":217.8101,"EPHEMERIS_TYPE":0,"CLASSIFICATION_TYPE":"U","NORAD_CAT_ID":17590,"ELEMENT_SET_NO":999,"REV_AT_EPOCH":1536,"BSTAR":6.9424e-5,"MEAN_MOTION_DOT":9.2e-7,"MEAN_MOTION_DDOT":0},{"OBJECT_NAME":"SL-14 R/B","OBJECT_ID":"1987-038B","EPOCH":"2026-03-09T16:49:27.048864","MEAN_MOTION":14.85369371,"ECCENTRICITY":0.0019685,"INCLINATION":82.5,"RA_OF_ASC_NODE":296.7973,"ARG_OF_PERICENTER":160.3861,"MEAN_ANOMALY":199.8117,"EPHEMERIS_TYPE":0,"CLASSIFICATION_TYPE":"U","NORAD_CAT_ID":17912,"ELEMENT_SET_NO":999,"REV_AT_EPOCH":7923,"BSTAR":5.9621e-5,"MEAN_MOTION_DOT":5.39e-6,"MEAN_MOTION_DDOT":0},{"OBJECT_NAME":"COSMOS 1844","OBJECT_ID":"1987-041A","EPOCH":"2026-03-09T07:54:33.287616","MEAN_MOTION":14.14552199,"ECCENTRICITY":0.00300047,"INCLINATION":70.8999,"RA_OF_ASC_NODE":34.9341,"ARG_OF_PERICENTER":18.2778,"MEAN_ANOMALY":341.9415,"EPHEMERIS_TYPE":0,"CLASSIFICATION_TYPE":"U","NORAD_CAT_ID":17973,"ELEMENT_SET_NO":999,"REV_AT_EPOCH":353,"BSTAR":-5.8695894e-5,"MEAN_MOTION_DOT":-1.62e-6,"MEAN_MOTION_DDOT":0},{"OBJECT_NAME":"SL-14 R/B","OBJECT_ID":"1987-055B","EPOCH":"2026-03-09T21:07:11.149824","MEAN_MOTION":14.85629907,"ECCENTRICITY":0.0021135,"INCLINATION":82.503,"RA_OF_ASC_NODE":348.852,"ARG_OF_PERICENTER":17.214,"MEAN_ANOMALY":342.9788,"EPHEMERIS_TYPE":0,"CLASSIFICATION_TYPE":"U","NORAD_CAT_ID":18153,"ELEMENT_SET_NO":999,"REV_AT_EPOCH":6996,"BSTAR":7.8351e-5,"MEAN_MOTION_DOT":7.05e-6,"MEAN_MOTION_DDOT":0},{"OBJECT_NAME":"COSMOS 1867","OBJECT_ID":"1987-060A","EPOCH":"2026-03-09T20:39:02.067840","MEAN_MOTION":14.31503072,"ECCENTRICITY":0.0014492,"INCLINATION":65.0112,"RA_OF_ASC_NODE":306.2275,"ARG_OF_PERICENTER":278.6567,"MEAN_ANOMALY":81.2876,"EPHEMERIS_TYPE":0,"CLASSIFICATION_TYPE":"U","NORAD_CAT_ID":18187,"ELEMENT_SET_NO":999,"REV_AT_EPOCH":1996,"BSTAR":3.4444e-5,"MEAN_MOTION_DOT":-8.0e-8,"MEAN_MOTION_DDOT":0},{"OBJECT_NAME":"SL-14 R/B","OBJECT_ID":"1988-001B","EPOCH":"2026-03-09T19:23:27.101184","MEAN_MOTION":14.85527977,"ECCENTRICITY":0.0016858,"INCLINATION":82.5154,"RA_OF_ASC_NODE":195.2488,"ARG_OF_PERICENTER":235.3305,"MEAN_ANOMALY":124.6323,"EPHEMERIS_TYPE":0,"CLASSIFICATION_TYPE":"U","NORAD_CAT_ID":18749,"ELEMENT_SET_NO":999,"REV_AT_EPOCH":4204,"BSTAR":8.3816e-5,"MEAN_MOTION_DOT":7.49e-6,"MEAN_MOTION_DDOT":0},{"OBJECT_NAME":"COSMOS 1933","OBJECT_ID":"1988-020A","EPOCH":"2026-03-09T14:12:59.968800","MEAN_MOTION":15.17980607,"ECCENTRICITY":0.000383,"INCLINATION":82.5098,"RA_OF_ASC_NODE":251.0079,"ARG_OF_PERICENTER":180.7462,"MEAN_ANOMALY":179.3767,"EPHEMERIS_TYPE":0,"CLASSIFICATION_TYPE":"U","NORAD_CAT_ID":18958,"ELEMENT_SET_NO":999,"REV_AT_EPOCH":5021,"BSTAR":0.00026214,"MEAN_MOTION_DOT":5.356e-5,"MEAN_MOTION_DDOT":0},{"OBJECT_NAME":"SL-3 R/B","OBJECT_ID":"1988-032B","EPOCH":"2026-03-09T20:44:29.128992","MEAN_MOTION":15.19912772,"ECCENTRICITY":0.002442,"INCLINATION":97.5196,"RA_OF_ASC_NODE":52.1146,"ARG_OF_PERICENTER":230.7857,"MEAN_ANOMALY":129.121,"EPHEMERIS_TYPE":0,"CLASSIFICATION_TYPE":"U","NORAD_CAT_ID":19046,"ELEMENT_SET_NO":999,"REV_AT_EPOCH":5213,"BSTAR":0.0002778,"MEAN_MOTION_DOT":5.944e-5,"MEAN_MOTION_DDOT":0},{"OBJECT_NAME":"SL-16 R/B","OBJECT_ID":"1988-039B","EPOCH":"2026-03-09T09:59:54.627936","MEAN_MOTION":14.19615406,"ECCENTRICITY":0.00227644,"INCLINATION":71.0134,"RA_OF_ASC_NODE":69.1249,"ARG_OF_PERICENTER":334.7268,"MEAN_ANOMALY":25.2742,"EPHEMERIS_TYPE":0,"CLASSIFICATION_TYPE":"U","NORAD_CAT_ID":19120,"ELEMENT_SET_NO":999,"REV_AT_EPOCH":95834,"BSTAR":-2.3171649e-5,"MEAN_MOTION_DOT":-9.7e-7,"MEAN_MOTION_DDOT":0},{"OBJECT_NAME":"COSMOS 1953","OBJECT_ID":"1988-050A","EPOCH":"2026-03-09T18:09:26.993952","MEAN_MOTION":15.28528086,"ECCENTRICITY":0.0012477,"INCLINATION":82.5105,"RA_OF_ASC_NODE":158.18,"ARG_OF_PERICENTER":122.2454,"MEAN_ANOMALY":237.9996,"EPHEMERIS_TYPE":0,"CLASSIFICATION_TYPE":"U","NORAD_CAT_ID":19210,"ELEMENT_SET_NO":999,"REV_AT_EPOCH":3779,"BSTAR":0.00029211,"MEAN_MOTION_DOT":8.158e-5,"MEAN_MOTION_DDOT":0}]
