SL-14 R/B               
1 16496U 86006B   26068.58769402  .00000809  00000+0  83607-4 0  9993
2 16496  82.5233 259.8333 0075052 273.1411  86.1221 14.86814645149193
COSMOS 1743             
1 16719U 86034A   26068.44944840  .00034437  00000+0  44928-3 0  9994
2 16719  82.5296  74.0830 0001656 296.6457  63.4629 15.58526486180219
SL-14 R/B               
1 16792U 86046B   26068.53790686  .00000575  00000+0  63515-4 0  9995
2 16792  82.4783  80.3252 0021961 225.8935 134.0474 14.85590147126389
SL-14 R/B               
1 16882U 86055B   26068.67964009  .00000523  00000+0  57455-4 0  9991
2 16882  82.5202 126.6837 0018192 336.5476 145.9532 14.85642641119364
AJISAI (EGS)            
1 16908U 86061A   26068.87365469 -.00000100  00000+0 -16471-4 0  9990
2 16908  50.0087  92.7819 0011270 287.4739 130.8658 12.44515636468021
SL-14 R/B               
1 17567U 87024B   26068.57136330  .00000557  00000+0  60637-4 0  9999
2 17567  82.5247  92.8750 0016681 260.3480  99.5853 14.86131911 88114
COSMOS 1833             
1 17589U 87027A   26068.86027651 -.00000179  00000+0 -69671-4 0  9992
2 17589  70.9224 325.6606 0024267 214.2789 145.6767 14.13054790 10346
SL-16 R/B               
1 17590U 87027B   26068.83345601  .00000092  00000+0  69424-4 0  9997
2 17590  71.0013 276.1925 0003447 142.3265 217.8101 14.17165897 15363
SL-14 R/B               
1 17912U 87038B   26068.70100751  .00000539  00000+0  59621-4 0  9992
2 17912  82.5000 296.7973 0019685 160.3861 199.8117 14.85369371 79238
COSMOS 1844             
1 17973U 87041A   26068.32955194 -.00000162  00000+0 -58696-4 0  9995
2 17973  70.8999  34.9341 0030004  18.2778 341.9415 14.14552199  3534
SL-14 R/B               
1 18153U 87055B   26068.87999016  .00000705  00000+0  78351-4 0  9993
2 18153  82.5030 348.8520 0021135  17.2140 342.9788 14.85629907 69967
COSMOS 1867             
1 18187U 87060A   26068.86044060 -.00000008  00000+0  34444-4 0  9997
2 18187  65.0112 306.2275 0014492 278.6567  81.2876 14.31503072 19961
SL-14 R/B               
1 18749U 88001B   26068.80795256  .00000749  00000+0  83816-4 0  9999
2 18749  82.5154 195.2488 0016858 235.3305 124.6323 14.85527977 42048
COSMOS 1933             
1 18958U 88020A   26068.59236075  .00005356  00000+0  26214-3 0  9994
2 18958  82.5098 251.0079 0003830 180.7462 179.3767 15.17980607 50213
SL-3 R/B                
1 19046U 88032B   26068.86422603  .00005944  00000+0  27780-3 0  9992
2 19046  97.5196  52.1146 0024420 230.7857 129.1210 15.19912772 52133
SL-16 R/B               
1 19120U 88039B   26068.41660449 -.00000097  00000+0 -23172-4 0  9993
2 19120  71.0134  69.1249 0022764 334.7268  25.2742 14.19615406958344
COSMOS 1953             
1 19210U 88050A   26068.75656243  .00008158  00000+0  29211-3 0  9993
2 19210  82.5105 158.1800 0012477 122.2454 237.9996 15.28528086 37796
